{"type": "FeatureCollection", "features": [ {"type": "Feature", "properties": {"norad_id": 65304, "name": "DRAGON CRS-33", "group": "stations", "lat": -11.428968980428369, "lon": -91.04958949012129, "alt_km": 419.9118746665645, "timestamp": "2025-12-25T09:48:51.040330+00:00", "meta": {"OBJECT_NAME": "DRAGON CRS-33", "OBJECT_ID": "2025-186A", "EPOCH": "2025-12-24T17:30:08.449344", "MEAN_MOTION": 15.49788781, "ECCENTRICITY": 0.00031932, "INCLINATION": 51.6317, "RA_OF_ASC_NODE": 83.1022, "ARG_OF_PERICENTER": 296.2044, "MEAN_ANOMALY": 63.8616, "EPHEMERIS_TYPE": 0, "CLASSIFICATION_TYPE": "U", "NORAD_CAT_ID": 65304, "ELEMENT_SET_NO": 999, "REV_AT_EPOCH": 11, "BSTAR": 0.00024880559, "MEAN_MOTION_DOT": 0.00013665, "MEAN_MOTION_DDOT": 0}, "tle": {"line1": "1 65304U 25186A   25358.72926446  .00013665  00000+0  24881-3 0  9999", "line2": "2 65304  51.6317  83.1022 0003193 296.2044  63.8616 15.49788781   112"}}, "geometry": {"type": "Point", "coordinates": [-91.04958949012129, -11.428968980428369]}}, {"type": "Feature", "properties": {"norad_id": 65586, "name": "PROGRESS-MS 32", "group": "stations", "lat": -11.428969530121018, "lon": -91.04958903152794, "alt_km": 419.9118746987533, "timestamp": "2025-12-25T09:48:51.040341+00:00", "meta": {"OBJECT_NAME": "PROGRESS-MS 32", "OBJECT_ID": "2025-204A", "EPOCH": "2025-12-24T17:30:08.449344", "MEAN_MOTION": 15.49788781, "ECCENTRICITY": 0.00031932, "INCLINATION": 51.6317, "RA_OF_ASC_NODE": 83.1022, "ARG_OF_PERICENTER": 296.2044, "MEAN_ANOMALY": 63.8616, "EPHEMERIS_TYPE": 0, "CLASSIFICATION_TYPE": "U", "NORAD_CAT_ID": 65586, "ELEMENT_SET_NO": 999, "REV_AT_EPOCH": 27, "BSTAR": 0.00024880559, "MEAN_MOTION_DOT": 0.00013665, "MEAN_MOTION_DDOT": 0}, "tle": {"line1": "1 65586U 25204A   25358.72926446  .00013665  00000+0  24881-3 0  9992", "line2": "2 65586  51.6317  83.1022 0003193 296.2044  63.8616 15.49788781   271"}}, "geometry": {"type": "Point", "coordinates": [-91.04958903152794, -11.428969530121018]}}, {"type": "Feature", "properties": {"norad_id": 65616, "name": "CYGNUS NG-23", "group": "stations", "lat": -11.428969979868747, "lon": -91.04958865631589, "alt_km": 419.9118747250959, "timestamp": "2025-12-25T09:48:51.040350+00:00", "meta": {"OBJECT_NAME": "CYGNUS NG-23", "OBJECT_ID": "2025-208A", "EPOCH": "2025-12-24T17:30:08.449344", "MEAN_MOTION": 15.49788781, "ECCENTRICITY": 0.00031932, "INCLINATION": 51.6317, "RA_OF_ASC_NODE": 83.1022, "ARG_OF_PERICENTER": 296.2044, "MEAN_ANOMALY": 63.8616, "EPHEMERIS_TYPE": 0, "CLASSIFICATION_TYPE": "U", "NORAD_CAT_ID": 65616, "ELEMENT_SET_NO": 999, "REV_AT_EPOCH": 22, "BSTAR": 0.00024880559, "MEAN_MOTION_DOT": 0.00013665, "MEAN_MOTION_DDOT": 0}, "tle": {"line1": "1 65616U 25208A   25358.72926446  .00013665  00000+0  24881-3 0  9990", "line2": "2 65616  51.6317  83.1022 0003193 296.2044  63.8616 15.49788781   220"}}, "geometry": {"type": "Point", "coordinates": [-91.04958865631589, -11.428969979868747]}}, {"type": "Feature", "properties": {"norad_id": 65729, "name": "DRAGONFLY", "group": "stations", "lat": -20.594824946554507, "lon": -91.99437160488034, "alt_km": 348.17403232401466, "timestamp": "2025-12-25T09:48:51.040360+00:00", "meta": {"OBJECT_NAME": "DRAGONFLY", "OBJECT_ID": "1998-067XH", "EPOCH": "2025-12-24T22:17:24.635904", "MEAN_MOTION": 15.7614965, "ECCENTRICITY": 0.0008056, "INCLINATION": 51.6251, "RA_OF_ASC_NODE": 73.1569, "ARG_OF_PERICENTER": 349.7528, "MEAN_ANOMALY": 10.3306, "EPHEMERIS_TYPE": 0, "CLASSIFICATION_TYPE": "U", "NORAD_CAT_ID": 65729, "ELEMENT_SET_NO": 999, "REV_AT_EPOCH": 1508, "BSTAR": 0.0012604, "MEAN_MOTION_DOT": 0.00206057, "MEAN_MOTION_DDOT": 0}, "tle": {"line1": "1 65729U 98067XH  25358.92875736  .00206057  00000+0  12604-2 0  9993", "line2": "2 65729  51.6251  73.1569 0008056 349.7528  10.3306 15.76149650 15080"}}, "geometry": {"type": "Point", "coordinates": [-91.99437160488034, -20.594824946554507]}}, {"type": "Feature", "properties": {"norad_id": 65731, "name": "1998-067XK", "group": "stations", "lat": -51.406851626625404, "lon": -24.04035581858863, "alt_km": 366.8714234539366, "timestamp": "2025-12-25T09:48:51.040370+00:00", "meta": {"OBJECT_NAME": "1998-067XK", "OBJECT_ID": "1998-067XK", "EPOCH": "2025-12-24T11:16:20.028000", "MEAN_MOTION": 15.67978094, "ECCENTRICITY": 0.00049802, "INCLINATION": 51.6288, "RA_OF_ASC_NODE": 77.6233, "ARG_OF_PERICENTER": 319.0572, "MEAN_ANOMALY": 41.005, "EPHEMERIS_TYPE": 0, "CLASSIFICATION_TYPE": "U", "NORAD_CAT_ID": 65731, "ELEMENT_SET_NO": 999, "REV_AT_EPOCH": 1498, "BSTAR": 0.00093626937, "MEAN_MOTION_DOT": 0.00106638, "MEAN_MOTION_DDOT": 0}, "tle": {"line1": "1 65731U 98067XK  25358.46967625  .00106638  00000+0  93627-3 0  9993", "line2": "2 65731  51.6288  77.6233 0004980 319.0572  41.0050 15.67978094 14988"}}, "geometry": {"type": "Point", "coordinates": [-24.04035581858863, -51.406851626625404]}}, {"type": "Feature", "properties": {"norad_id": 65732, "name": "RSP-03", "group": "stations", "lat": 21.64265206462734, "lon": 90.14681862328597, "alt_km": 348.82841805021417, "timestamp": "2025-12-25T09:48:51.040380+00:00", "meta": {"OBJECT_NAME": "RSP-03", "OBJECT_ID": "1998-067XL", "EPOCH": "2025-12-25T00:32:25.214784", "MEAN_MOTION": 15.71791128, "ECCENTRICITY": 0.0006004, "INCLINATION": 51.6261, "RA_OF_ASC_NODE": 73.8, "ARG_OF_PERICENTER": 329.4925, "MEAN_ANOMALY": 30.5723, "EPHEMERIS_TYPE": 0, "CLASSIFICATION_TYPE": "U", "NORAD_CAT_ID": 65732, "ELEMENT_SET_NO": 999, "REV_AT_EPOCH": 1509, "BSTAR": 0.0010967, "MEAN_MOTION_DOT": 0.00147294, "MEAN_MOTION_DDOT": 0}, "tle": {"line1": "1 65732U 98067XL  25359.02251406  .00147294  00000+0  10967-2 0  9998", "line2": "2 65732  51.6261  73.8000 0006004 329.4925  30.5723 15.71791128 15095"}}, "geometry": {"type": "Point", "coordinates": [90.14681862328597, 21.64265206462734]}}, {"type": "Feature", "properties": {"norad_id": 65733, "name": "GHS-01", "group": "stations", "lat": -49.71245843516587, "lon": 0.5989538600792591, "alt_km": 331.1939692753285, "timestamp": "2025-12-25T09:48:51.040391+00:00", "meta": {"OBJECT_NAME": "GHS-01", "OBJECT_ID": "1998-067XM", "EPOCH": "2025-12-24T11:22:26.359680", "MEAN_MOTION": 15.80150374, "ECCENTRICITY": 0.00095342, "INCLINATION": 51.6288, "RA_OF_ASC_NODE": 74.6328, "ARG_OF_PERICENTER": 353.1442, "MEAN_ANOMALY": 6.9427, "EPHEMERIS_TYPE": 0, "CLASSIFICATION_TYPE": "U", "NORAD_CAT_ID": 65733, "ELEMENT_SET_NO": 999, "REV_AT_EPOCH": 1503, "BSTAR": 0.0014499406, "MEAN_MOTION_DOT": 0.00286733, "MEAN_MOTION_DDOT": 0}, "tle": {"line1": "1 65733U 98067XM  25358.47391620  .00286733  00000+0  14499-2 0  9996", "line2": "2 65733  51.6288  74.6328 0009534 353.1442   6.9427 15.80150374 15030"}}, "geometry": {"type": "Point", "coordinates": [0.5989538600792591, -49.71245843516587]}}, {"type": "Feature", "properties": {"norad_id": 65941, "name": "YOTSUBA-KULOVER", "group": "stations", "lat": 51.10179977225343, "lon": 155.33469532339623, "alt_km": 377.19770369054913, "timestamp": "2025-12-25T09:48:51.040401+00:00", "meta": {"OBJECT_NAME": "YOTSUBA-KULOVER", "OBJECT_ID": "1998-067XN", "EPOCH": "2025-12-24T15:01:23.824416", "MEAN_MOTION": 15.61031773, "ECCENTRICITY": 0.0002334, "INCLINATION": 51.6294, "RA_OF_ASC_NODE": 80.1673, "ARG_OF_PERICENTER": 354.5488, "MEAN_ANOMALY": 5.548, "EPHEMERIS_TYPE": 0, "CLASSIFICATION_TYPE": "U", "NORAD_CAT_ID": 65941, "ELEMENT_SET_NO": 999, "REV_AT_EPOCH": 1171, "BSTAR": 0.00084629408, "MEAN_MOTION_DOT": 0.00072714, "MEAN_MOTION_DDOT": 0}, "tle": {"line1": "1 65941U 98067XN  25358.62597019  .00072714  00000+0  84629-3 0  9999", "line2": "2 65941  51.6294  80.1673 0002334 354.5488   5.5480 15.61031773 11714"}}, "geometry": {"type": "Point", "coordinates": [155.33469532339623, 51.10179977225343]}}, {"type": "Feature", "properties": {"norad_id": 65942, "name": "BOTAN", "group": "stations", "lat": -36.759138962902455, "lon": -68.54392314408702, "alt_km": 376.4435871150945, "timestamp": "2025-12-25T09:48:51.040412+00:00", "meta": {"OBJECT_NAME": "BOTAN", "OBJECT_ID": "1998-067XP", "EPOCH": "2025-12-24T22:06:45.138528", "MEAN_MOTION": 15.65433076, "ECCENTRICITY": 0.00033628, "INCLINATION": 51.6276, "RA_OF_ASC_NODE": 77.6384, "ARG_OF_PERICENTER": 336.9031, "MEAN_ANOMALY": 23.1813, "EPHEMERIS_TYPE": 0, "CLASSIFICATION_TYPE": "U", "NORAD_CAT_ID": 65942, "ELEMENT_SET_NO": 999, "REV_AT_EPOCH": 1177, "BSTAR": 0.0011375872, "MEAN_MOTION_DOT": 0.00117098, "MEAN_MOTION_DDOT": 0}, "tle": {"line1": "1 65942U 98067XP  25358.92135577  .00117098  00000+0  11376-2 0  9993", "line2": "2 65942  51.6276  77.6384 0003362 336.9031  23.1813 15.65433076 11773"}}, "geometry": {"type": "Point", "coordinates": [-68.54392314408702, -36.759138962902455]}}, {"type": "Feature", "properties": {"norad_id": 65943, "name": "E-KAGAKU-1", "group": "stations", "lat": 51.02264484843138, "lon": 154.50955037600116, "alt_km": 377.7800446863921, "timestamp": "2025-12-25T09:48:51.040424+00:00", "meta": {"OBJECT_NAME": "E-KAGAKU-1", "OBJECT_ID": "1998-067XQ", "EPOCH": "2025-12-24T11:57:09.904320", "MEAN_MOTION": 15.61022855, "ECCENTRICITY": 0.00014072, "INCLINATION": 51.6316, "RA_OF_ASC_NODE": 80.8196, "ARG_OF_PERICENTER": 317.6976, "MEAN_ANOMALY": 42.3909, "EPHEMERIS_TYPE": 0, "CLASSIFICATION_TYPE": "U", "NORAD_CAT_ID": 65943, "ELEMENT_SET_NO": 999, "REV_AT_EPOCH": 1169, "BSTAR": 0.00086882896, "MEAN_MOTION_DOT": 0.00074652, "MEAN_MOTION_DDOT": 0}, "tle": {"line1": "1 65943U 98067XQ  25358.49803130  .00074652  00000+0  86883-3 0  9997", "line2": "2 65943  51.6316  80.8196 0001407 317.6976  42.3909 15.61022855 11693"}}, "geometry": {"type": "Point", "coordinates": [154.50955037600116, 51.02264484843138]}}]}